{
"type": "FeatureCollection",
"name": "Ilissós",
"crs": { "type": "name", "properties": { "name": "urn:ogc:def:crs:OGC:1.3:CRS84" } },
"features": [
{ "type": "Feature", "properties": { "id": null }, "geometry": { "type": "MultiLineString", "coordinates": [ [ [ 23.683764276258696, 37.971612144746196 ], [ 23.686875640544272, 37.970969921029848 ], [ 23.68892099422504, 37.969712786003448 ], [ 23.693887043627917, 37.968742590994104 ], [ 23.697163076218292, 37.968838244592902 ], [ 23.700560443349058, 37.96946682228468 ], [ 23.703368471283667, 37.969958748898151 ], [ 23.705379157952901, 37.969152534111515 ], [ 23.705968497149058, 37.967526412944203 ], [ 23.707407178127895, 37.963672771923193 ], [ 23.709123195199052, 37.960775575286227 ], [ 23.710544542672132, 37.960133256779095 ], [ 23.713612573193281, 37.960584246956678 ], [ 23.71643793463366, 37.96087123926408 ], [ 23.717547279002886, 37.960953236860192 ], [ 23.719436631131728, 37.960420250848898 ], [ 23.721065980674041, 37.958383935340258 ], [ 23.721984656479812, 37.956853244901744 ], [ 23.724047343666346, 37.955814543936377 ], [ 23.725486024645193, 37.955917047974374 ], [ 23.727843381429807, 37.95730425522089 ], [ 23.730530074824035, 37.958896436170946 ], [ 23.733043433160567, 37.960679911183753 ], [ 23.736562134831718, 37.962511173790986 ], [ 23.738815490581715, 37.963050977561359 ], [ 23.74097351204998, 37.963515615603669 ], [ 23.742750196391317, 37.964157904526985 ], [ 23.745003552141316, 37.965292145713313 ], [ 23.746840903752847, 37.966884153486014 ], [ 23.748054249156691, 37.967745053180067 ], [ 23.750597941128316, 37.969459989947396 ], [ 23.752747295843697, 37.970525826876383 ], [ 23.755693991824469, 37.970997249813067 ], [ 23.757271340849464, 37.971475501872817 ] ] ] } }
]
}
